HERMES-4                
1 63833U 25052BP  26068.92081747  .00021364  00000+0  81237-3 0  9996
2 63833  97.4000 323.4610 0002652 154.9526 205.1842 15.26796135 54782
STARLINK-35400          
1 66333U 25253Q   26068.45622323  .00029684  00000+0  10821-2 0  9999
2 66333  43.0025 214.2678 0004876 154.7515 205.3576 15.27626543 20203
