[{"OBJECT_NAME":"HERMES-4","OBJECT_ID":"2025-052BP","EPOCH":"2026-03-09T22:05:58.629408","MEAN_MOTION":15.26796135,"ECCENTRICITY":0.00026523,"INCLINATION":97.4,"RA_OF_ASC_NODE":323.461,"ARG_OF_PERICENTER":154.9526,"MEAN_ANOMALY":205.1842,"EPHEMERIS_TYPE":0,"CLASSIFICATION_TYPE":"U","NORAD_CAT_ID":63833,"ELEMENT_SET_NO":999,"REV_AT_EPOCH":5478,"BSTAR":0.00081237216,"MEAN_MOTION_DOT":0.00021364,"MEAN_MOTION_DDOT":0},{"OBJECT_NAME":"STARLINK-35400","OBJECT_ID":"2025-253Q","EPOCH":"2026-03-09T10:56:57.687072","MEAN_MOTION":15.27626543,"ECCENTRICITY":0.00048764,"INCLINATION":43.0025,"RA_OF_ASC_NODE":214.2678,"ARG_OF_PERICENTER":154.7515,"MEAN_ANOMALY":205.3576,"EPHEMERIS_TYPE":0,"CLASSIFICATION_TYPE":"U","NORAD_CAT_ID":66333,"ELEMENT_SET_NO":999,"REV_AT_EPOCH":2020,"BSTAR":0.0010820894,"MEAN_MOTION_DOT":0.00029684,"MEAN_MOTION_DDOT":0}]
